{
  "type": "FeatureCollection",
  "features": [
    {
      "type": "Feature",
      "properties": {
        "norad_id": 37238,
        "name": "INTELSAT 17 (IS-17)",
        "group": "intelsat",
        "lat": -0.02695980543478794,
        "lon": -115.09246564314726,
        "alt_km": 35775.18372118358,
        "timestamp": "2025-12-02T07:10:08.777269+00:00",
        "meta_object_name": "INTELSAT 17 (IS-17)",
        "meta_object_id": "2010-065B",
        "meta_epoch": "2025-12-01T19:15:50.459040",
        "meta_mean_motion": 1.00272195,
        "meta_eccentricity": 0.0002686,
        "meta_inclination": 0.0202,
        "meta_ra_of_asc_node": 275.855,
        "meta_arg_of_pericenter": 347.9664,
        "meta_mean_anomaly": 162.0587,
        "meta_ephemeris_type": 0,
        "meta_classification_type": "U",
        "meta_norad_cat_id": 37238,
        "meta_element_set_no": 999,
        "meta_rev_at_epoch": 5126,
        "meta_bstar": 0,
        "meta_mean_motion_dot": 2e-07,
        "meta_mean_motion_ddot": 0,
        "tle_line1": "1 37238U 10065B   25335.80266735  .00000020  00000+0  00000+0 0  9990",
        "tle_line2": "2 37238   0.0202 275.8550 0002686 347.9664 162.0587  1.00272195 51262"
      },
      "geometry": {
        "type": "Point",
        "coordinates": [
          -115.09246564314726,
          -0.02695980543478794
        ]
      }
    },
    {
      "type": "Feature",
      "properties": {
        "norad_id": 37392,
        "name": "INTELSAT 28 (IS-28)",
        "group": "intelsat",
        "lat": 1.137436023800692,
        "lon": 147.15518263579153,
        "alt_km": 35792.37348947808,
        "timestamp": "2025-12-02T07:10:08.777281+00:00",
        "meta_object_name": "INTELSAT 28 (IS-28)",
        "meta_object_id": "2011-016A",
        "meta_epoch": "2025-12-01T18:48:00.625248",
        "meta_mean_motion": 1.0026993,
        "meta_eccentricity": 0.0004106,
        "meta_inclination": 1.2937,
        "meta_ra_of_asc_node": 85.1868,
        "meta_arg_of_pericenter": 171.8407,
        "meta_mean_anomaly": 64.1665,
        "meta_ephemeris_type": 0,
        "meta_classification_type": "U",
        "meta_norad_cat_id": 37392,
        "meta_element_set_no": 999,
        "meta_rev_at_epoch": 5130,
        "meta_bstar": 0,
        "meta_mean_motion_dot": -2.03e-06,
        "meta_mean_motion_ddot": 0,
        "tle_line1": "1 37392U 11016A   25335.78334057 -.00000203  00000+0  00000+0 0  9992",
        "tle_line2": "2 37392   1.2937  85.1868 0004106 171.8407  64.1665  1.00269930 51300"
      },
      "geometry": {
        "type": "Point",
        "coordinates": [
          147.15518263579153,
          1.137436023800692
        ]
      }
    },
    {
      "type": "Feature",
      "properties": {
        "norad_id": 37834,
        "name": "INTELSAT 18 (IS-18)",
        "group": "intelsat",
        "lat": 0.028481619323311256,
        "lon": -1.0650919038054127,
        "alt_km": 35789.11720790912,
        "timestamp": "2025-12-02T07:10:08.777293+00:00",
        "meta_object_name": "INTELSAT 18 (IS-18)",
        "meta_object_id": "2011-056A",
        "meta_epoch": "2025-12-01T18:05:38.025312",
        "meta_mean_motion": 1.00270857,
        "meta_eccentricity": 0.000202,
        "meta_inclination": 0.0193,
        "meta_ra_of_asc_node": 320.1587,
        "meta_arg_of_pericenter": 289.5607,
        "meta_mean_anomaly": 272.5588,
        "meta_ephemeris_type": 0,
        "meta_classification_type": "U",
        "meta_norad_cat_id": 37834,
        "meta_element_set_no": 999,
        "meta_rev_at_epoch": 5183,
        "meta_bstar": 0,
        "meta_mean_motion_dot": 7.4e-07,
        "meta_mean_motion_ddot": 0,
        "tle_line1": "1 37834U 11056A   25335.75391233  .00000074  00000+0  00000+0 0  9998",
        "tle_line2": "2 37834   0.0193 320.1587 0002020 289.5607 272.5588  1.00270857 51831"
      },
      "geometry": {
        "type": "Point",
        "coordinates": [
          -1.0650919038054127,
          0.028481619323311256
        ]
      }
    },
    {
      "type": "Feature",
      "properties": {
        "norad_id": 38098,
        "name": "INTELSAT 22 (IS-22)",
        "group": "intelsat",
        "lat": -0.02844881156751838,
        "lon": -109.0168471738556,
        "alt_km": 35778.53243443609,
        "timestamp": "2025-12-02T07:10:08.777305+00:00",
        "meta_object_name": "INTELSAT 22 (IS-22)",
        "meta_object_id": "2012-011A",
        "meta_epoch": "2025-12-01T19:17:35.290752",
        "meta_mean_motion": 1.00270944,
        "meta_eccentricity": 0.0002007,
        "meta_inclination": 0.0284,
        "meta_ra_of_asc_node": 37.8831,
        "meta_arg_of_pericenter": 236.7563,
        "meta_mean_anomaly": 157.7557,
        "meta_ephemeris_type": 0,
        "meta_classification_type": "U",
        "meta_norad_cat_id": 38098,
        "meta_element_set_no": 999,
        "meta_rev_at_epoch": 520,
        "meta_bstar": 0,
        "meta_mean_motion_dot": 0,
        "meta_mean_motion_ddot": 0,
        "tle_line1": "1 38098U 12011A   25335.80388068  .00000000  00000+0  00000+0 0  9990",
        "tle_line2": "2 38098   0.0284  37.8831 0002007 236.7563 157.7557  1.00270944  5206"
      },
      "geometry": {
        "type": "Point",
        "coordinates": [
          -109.0168471738556,
          -0.02844881156751838
        ]
      }
    },
    {
      "type": "Feature",
      "properties": {
        "norad_id": 38356,
        "name": "INTELSAT 19 (IS-19)",
        "group": "intelsat",
        "lat": 0.018137978744479966,
        "lon": -15.02902991473972,
        "alt_km": 35785.81344209834,
        "timestamp": "2025-12-02T07:10:08.777318+00:00",
        "meta_object_name": "INTELSAT 19 (IS-19)",
        "meta_object_id": "2012-030A",
        "meta_epoch": "2025-12-01T18:01:38.407008",
        "meta_mean_motion": 1.00271615,
        "meta_eccentricity": 0.0003388,
        "meta_inclination": 0.0115,
        "meta_ra_of_asc_node": 315.6447,
        "meta_arg_of_pericenter": 300.6191,
        "meta_mean_anomaly": 251.0309,
        "meta_ephemeris_type": 0,
        "meta_classification_type": "U",
        "meta_norad_cat_id": 38356,
        "meta_element_set_no": 999,
        "meta_rev_at_epoch": 4847,
        "meta_bstar": 0,
        "meta_mean_motion_dot": -3.5e-07,
        "meta_mean_motion_ddot": 0,
        "tle_line1": "1 38356U 12030A   25335.75113897 -.00000035  00000+0  00000+0 0  9997",
        "tle_line2": "2 38356   0.0115 315.6447 0003388 300.6191 251.0309  1.00271615 48472"
      },
      "geometry": {
        "type": "Point",
        "coordinates": [
          -15.02902991473972,
          0.018137978744479966
        ]
      }
    },
    {
      "type": "Feature",
      "properties": {
        "norad_id": 38740,
        "name": "INTELSAT 20 (IS-20)",
        "group": "intelsat",
        "lat": -0.029709333075246463,
        "lon": -112.58854309315055,
        "alt_km": 35779.988938805844,
        "timestamp": "2025-12-02T07:10:08.777330+00:00",
        "meta_object_name": "INTELSAT 20 (IS-20)",
        "meta_object_id": "2012-043A",
        "meta_epoch": "2025-12-01T12:25:40.582848",
        "meta_mean_motion": 1.00268649,
        "meta_eccentricity": 0.00029193,
        "meta_inclination": 0.0092,
        "meta_ra_of_asc_node": 328.1946,
        "meta_arg_of_pericenter": 223.3242,
        "meta_mean_anomaly": 134.0152,
        "meta_ephemeris_type": 0,
        "meta_classification_type": "U",
        "meta_norad_cat_id": 38740,
        "meta_element_set_no": 999,
        "meta_rev_at_epoch": 4876,
        "meta_bstar": 0,
        "meta_mean_motion_dot": 0,
        "meta_mean_motion_ddot": 0,
        "tle_line1": "1 38740U 12043A   25335.51783082  .00000000  00000+0  00000+0 0  9992",
        "tle_line2": "2 38740   0.0092 328.1946 0002919 223.3242 134.0152  1.00268649 48764"
      },
      "geometry": {
        "type": "Point",
        "coordinates": [
          -112.58854309315055,
          -0.029709333075246463
        ]
      }
    },
    {
      "type": "Feature",
      "properties": {
        "norad_id": 38749,
        "name": "INTELSAT 21 (IS-21)",
        "group": "intelsat",
        "lat": 0.0362402960336325,
        "lon": 120.91669772720996,
        "alt_km": 35789.67354833706,
        "timestamp": "2025-12-02T07:10:08.777343+00:00",
        "meta_object_name": "INTELSAT 21 (IS-21)",
        "meta_object_id": "2012-045A",
        "meta_epoch": "2025-12-01T11:49:36.536736",
        "meta_mean_motion": 1.00274806,
        "meta_eccentricity": 0.00019861,
        "meta_inclination": 0.0575,
        "meta_ra_of_asc_node": 92.1177,
        "meta_arg_of_pericenter": 149.8881,
        "meta_mean_anomaly": 308.0219,
        "meta_ephemeris_type": 0,
        "meta_classification_type": "U",
        "meta_norad_cat_id": 38749,
        "meta_element_set_no": 999,
        "meta_rev_at_epoch": 4854,
        "meta_bstar": 0,
        "meta_mean_motion_dot": -2.63e-06,
        "meta_mean_motion_ddot": 0,
        "tle_line1": "1 38749U 12045A   25335.49278399 -.00000263  00000+0  00000+0 0  9992",
        "tle_line2": "2 38749   0.0575  92.1177 0001986 149.8881 308.0219  1.00274806 48542"
      },
      "geometry": {
        "type": "Point",
        "coordinates": [
          120.91669772720996,
          0.0362402960336325
        ]
      }
    }
  ]
}